{
  "generated_at": "2026-06-11T10:24:08+00:00",
  "source": "celestrak.org",
  "satellite_count": 9,
  "satellites": [
    {
      "id": "terra",
      "name": "TERRA",
      "platform": "EOS",
      "sensor": "MODIS",
      "swath_km": 2330,
      "color": "#39d0d8",
      "norad": 25994,
      "tle1": "1 25994U 99068A   26161.65839779  .00000315  00000+0  73135-4 0  9992",
      "tle2": "2 25994  97.9458 211.4633 0001092 217.9293 254.4366 14.61097849408650"
    },
    {
      "id": "aqua",
      "name": "AQUA",
      "platform": "EOS",
      "sensor": "MODIS",
      "swath_km": 2330,
      "color": "#2bb673",
      "norad": 27424,
      "tle1": "1 27424U 02022A   26161.62000722  .00000676  00000+0  14414-3 0  9995",
      "tle2": "2 27424  98.4274 130.7718 0001370  53.1045   0.2372 14.62148132282313"
    },
    {
      "id": "snpp",
      "name": "SUOMI NPP",
      "platform": "JPSS",
      "sensor": "VIIRS",
      "swath_km": 3000,
      "color": "#ff8c42",
      "norad": 37849,
      "tle1": "1 37849U 11061A   26161.57387839  .00000059  00000+0  49156-4 0  9998",
      "tle2": "2 37849  98.7953 102.4951 0001899  21.8270 338.2987 14.19516020757506"
    },
    {
      "id": "noaa20",
      "name": "NOAA 20",
      "platform": "JPSS",
      "sensor": "VIIRS",
      "swath_km": 3000,
      "color": "#ffaa00",
      "norad": 43013,
      "tle1": "1 43013U 17073A   26161.58707139  .00000042  00000+0  41119-4 0  9990",
      "tle2": "2 43013  98.7772 101.1084 0000389  51.3333 308.7878 14.19510532443537"
    },
    {
      "id": "noaa21",
      "name": "NOAA 21",
      "platform": "JPSS",
      "sensor": "VIIRS",
      "swath_km": 3000,
      "color": "#ff5a3a",
      "norad": 54234,
      "tle1": "1 54234U 22150A   26161.54972967  .00000035  00000+0  37462-4 0  9996",
      "tle2": "2 54234  98.7059 100.4503 0001290 169.4822 190.6382 14.19564328185607"
    },
    {
      "id": "sentinel2a",
      "name": "SENTINEL-2A",
      "platform": "Copernicus",
      "sensor": "MSI",
      "swath_km": 290,
      "color": "#b388ff",
      "norad": 40697,
      "tle1": "1 40697U 15028A   26162.13076113  .00000063  00000+0  40839-4 0  9997",
      "tle2": "2 40697  98.5688 237.0686 0001086  96.7897 263.3409 14.30813887572863"
    },
    {
      "id": "sentinel2b",
      "name": "SENTINEL-2B",
      "platform": "Copernicus",
      "sensor": "MSI",
      "swath_km": 290,
      "color": "#9d6dff",
      "norad": 42063,
      "tle1": "1 42063U 17013A   26161.63405826  .00000196  00000+0  91264-4 0  9998",
      "tle2": "2 42063  98.5688 236.5010 0001201  85.3111 274.8209 14.30815620483705"
    },
    {
      "id": "sentinel3a",
      "name": "SENTINEL-3A",
      "platform": "Copernicus",
      "sensor": "OLCI",
      "swath_km": 1270,
      "color": "#7a4fff",
      "norad": 41335,
      "tle1": "1 41335U 16011A   26161.62435609  .00000075  00000+0  48839-4 0  9993",
      "tle2": "2 41335  98.6249 229.1020 0001370 103.7435 256.3898 14.26738138537128"
    },
    {
      "id": "sentinel3b",
      "name": "SENTINEL-3B",
      "platform": "Copernicus",
      "sensor": "OLCI",
      "swath_km": 1270,
      "color": "#5e3bff",
      "norad": 43437,
      "tle1": "1 43437U 18039A   26161.59748968  .00000080  00000+0  51181-4 0  9991",
      "tle2": "2 43437  98.6249 229.2242 0000823  80.1829 279.9444 14.26739879423188"
    }
  ]
}